[{"OBJECT_NAME":"STARLINK-31283","OBJECT_ID":"2024-044Y","EPOCH":"2025-07-27T22:00:01.999584","MEAN_MOTION":15.27571648,"ECCENTRICITY":0.0001478,"INCLINATION":42.9989,"RA_OF_ASC_NODE":249.505,"ARG_OF_PERICENTER":264.1062,"MEAN_ANOMALY":33.8828,"EPHEMERIS_TYPE":0,"CLASSIFICATION_TYPE":"U","NORAD_CAT_ID":59174,"ELEMENT_SET_NO":999,"REV_AT_EPOCH":591,"BSTAR":0.00012717,"MEAN_MOTION_DOT":3.238e-5,"MEAN_MOTION_DDOT":0},{"OBJECT_NAME":"STARLINK-31439","OBJECT_ID":"2024-045A","EPOCH":"2025-07-27T14:11:02.309280","MEAN_MOTION":15.27590547,"ECCENTRICITY":0.0001389,"INCLINATION":43.0005,"RA_OF_ASC_NODE":280.4814,"ARG_OF_PERICENTER":268.8405,"MEAN_ANOMALY":91.2288,"EPHEMERIS_TYPE":0,"CLASSIFICATION_TYPE":"U","NORAD_CAT_ID":59178,"ELEMENT_SET_NO":999,"REV_AT_EPOCH":1510,"BSTAR":0.00019461,"MEAN_MOTION_DOT":5.099e-5,"MEAN_MOTION_DDOT":0},{"OBJECT_NAME":"STARLINK-31410","OBJECT_ID":"2024-045B","EPOCH":"2025-07-27T13:59:14.414208","MEAN_MOTION":15.27592789,"ECCENTRICITY":0.0001274,"INCLINATION":42.9994,"RA_OF_ASC_NODE":283.8794,"ARG_OF_PERICENTER":269.2625,"MEAN_ANOMALY":90.808,"EPHEMERIS_TYPE":0,"CLASSIFICATION_TYPE":"U","NORAD_CAT_ID":59179,"ELEMENT_SET_NO":999,"REV_AT_EPOCH":7873,"BSTAR":0.00024817,"MEAN_MOTION_DOT":6.576e-5,"MEAN_MOTION_DDOT":0},{"OBJECT_NAME":"STARLINK-31395","OBJECT_ID":"2024-045C","EPOCH":"2025-07-28T04:47:22.178400","MEAN_MOTION":15.27574384,"ECCENTRICITY":0.0001139,"INCLINATION":43.0024,"RA_OF_ASC_NODE":280.7703,"ARG_OF_PERICENTER":244.8542,"MEAN_ANOMALY":115.2192,"EPHEMERIS_TYPE":0,"CLASSIFICATION_TYPE":"U","NORAD_CAT_ID":59180,"ELEMENT_SET_NO":999,"REV_AT_EPOCH":7882,"BSTAR":-1.6462e-5,"MEAN_MOTION_DOT":-7.15e-6,"MEAN_MOTION_DDOT":0},{"OBJECT_NAME":"STARLINK-31486","OBJECT_ID":"2024-045D","EPOCH":"2025-07-28T04:24:00.563904","MEAN_MOTION":15.27574716,"ECCENTRICITY":0.0001729,"INCLINATION":43.0005,"RA_OF_ASC_NODE":277.189,"ARG_OF_PERICENTER":277.984,"MEAN_ANOMALY":82.0815,"EPHEMERIS_TYPE":0,"CLASSIFICATION_TYPE":"U","NORAD_CAT_ID":59181,"ELEMENT_SET_NO":999,"REV_AT_EPOCH":7886,"BSTAR":1.362e-5,"MEAN_MOTION_DOT":1.12e-6,"MEAN_MOTION_DDOT":0},{"OBJECT_NAME":"STARLINK-31411","OBJECT_ID":"2024-045E","EPOCH":"2025-07-27T13:22:14.475936","MEAN_MOTION":15.27588712,"ECCENTRICITY":9.16e-5,"INCLINATION":42.9988,"RA_OF_ASC_NODE":283.6862,"ARG_OF_PERICENTER":270.4136,"MEAN_ANOMALY":89.6611,"EPHEMERIS_TYPE":0,"CLASSIFICATION_TYPE":"U","NORAD_CAT_ID":59182,"ELEMENT_SET_NO":999,"REV_AT_EPOCH":7873,"BSTAR":-1.4202e-5,"MEAN_MOTION_DOT":-6.53e-6,"MEAN_MOTION_DDOT":0},{"OBJECT_NAME":"STARLINK-31382","OBJECT_ID":"2024-045G","EPOCH":"2025-07-27T14:48:59.141952","MEAN_MOTION":15.27590584,"ECCENTRICITY":0.0001314,"INCLINATION":42.9984,"RA_OF_ASC_NODE":283.2755,"ARG_OF_PERICENTER":264.4963,"MEAN_ANOMALY":95.5739,"EPHEMERIS_TYPE":0,"CLASSIFICATION_TYPE":"U","NORAD_CAT_ID":59184,"ELEMENT_SET_NO":999,"REV_AT_EPOCH":7874,"BSTAR":0.00017189,"MEAN_MOTION_DOT":4.472e-5,"MEAN_MOTION_DDOT":0},{"OBJECT_NAME":"STARLINK-31394","OBJECT_ID":"2024-045H","EPOCH":"2025-07-28T03:46:33.064896","MEAN_MOTION":15.27579988,"ECCENTRICITY":0.0002659,"INCLINATION":43.0009,"RA_OF_ASC_NODE":270.0825,"ARG_OF_PERICENTER":316.1532,"MEAN_ANOMALY":43.9109,"EPHEMERIS_TYPE":0,"CLASSIFICATION_TYPE":"U","NORAD_CAT_ID":59185,"ELEMENT_SET_NO":999,"REV_AT_EPOCH":7894,"BSTAR":-5.2538e-6,"MEAN_MOTION_DOT":-4.07e-6,"MEAN_MOTION_DDOT":0},{"OBJECT_NAME":"STARLINK-31403","OBJECT_ID":"2024-045J","EPOCH":"2025-07-27T20:54:57.133440","MEAN_MOTION":15.27580632,"ECCENTRICITY":0.0001121,"INCLINATION":43.0028,"RA_OF_ASC_NODE":260.7635,"ARG_OF_PERICENTER":272.9985,"MEAN_ANOMALY":87.0739,"EPHEMERIS_TYPE":0,"CLASSIFICATION_TYPE":"U","NORAD_CAT_ID":59186,"ELEMENT_SET_NO":999,"REV_AT_EPOCH":7896,"BSTAR":5.2836e-5,"MEAN_MOTION_DOT":1.192e-5,"MEAN_MOTION_DDOT":0},{"OBJECT_NAME":"STARLINK-31514","OBJECT_ID":"2024-045K","EPOCH":"2025-07-27T14:02:57.637248","MEAN_MOTION":15.27580778,"ECCENTRICITY":8.0e-5,"INCLINATION":43.0016,"RA_OF_ASC_NODE":283.8982,"ARG_OF_PERICENTER":272.4,"MEAN_ANOMALY":87.676,"EPHEMERIS_TYPE":0,"CLASSIFICATION_TYPE":"U","NORAD_CAT_ID":59187,"ELEMENT_SET_NO":999,"REV_AT_EPOCH":7873,"BSTAR":-0.00010916,"MEAN_MOTION_DOT":-3.264e-5,"MEAN_MOTION_DDOT":0},{"OBJECT_NAME":"STARLINK-31478","OBJECT_ID":"2024-045L","EPOCH":"2025-07-28T05:29:42.582912","MEAN_MOTION":15.27563984,"ECCENTRICITY":0.0001122,"INCLINATION":42.9983,"RA_OF_ASC_NODE":280.1221,"ARG_OF_PERICENTER":285.1801,"MEAN_ANOMALY":74.8927,"EPHEMERIS_TYPE":0,"CLASSIFICATION_TYPE":"U","NORAD_CAT_ID":59188,"ELEMENT_SET_NO":999,"REV_AT_EPOCH":7883,"BSTAR":-0.00059289,"MEAN_MOTION_DOT":-0.00016533,"MEAN_MOTION_DDOT":0},{"OBJECT_NAME":"STARLINK-31498","OBJECT_ID":"2024-045M","EPOCH":"2025-07-27T14:25:08.217120","MEAN_MOTION":15.27585685,"ECCENTRICITY":0.0001262,"INCLINATION":43.0028,"RA_OF_ASC_NODE":284.0102,"ARG_OF_PERICENTER":276.3217,"MEAN_ANOMALY":83.7491,"EPHEMERIS_TYPE":0,"CLASSIFICATION_TYPE":"U","NORAD_CAT_ID":59189,"ELEMENT_SET_NO":999,"REV_AT_EPOCH":7873,"BSTAR":8.5116e-5,"MEAN_MOTION_DOT":2.081e-5,"MEAN_MOTION_DDOT":0},{"OBJECT_NAME":"STARLINK-31563","OBJECT_ID":"2024-045N","EPOCH":"2025-07-28T05:13:04.117728","MEAN_MOTION":15.27572055,"ECCENTRICITY":4.54e-5,"INCLINATION":43.0011,"RA_OF_ASC_NODE":280.0397,"ARG_OF_PERICENTER":247.585,"MEAN_ANOMALY":112.4953,"EPHEMERIS_TYPE":0,"CLASSIFICATION_TYPE":"U","NORAD_CAT_ID":59190,"ELEMENT_SET_NO":999,"REV_AT_EPOCH":7883,"BSTAR":-3.4496e-5,"MEAN_MOTION_DOT":-1.211e-5,"MEAN_MOTION_DDOT":0},{"OBJECT_NAME":"STARLINK-31551","OBJECT_ID":"2024-045P","EPOCH":"2025-07-27T08:58:37.870752","MEAN_MOTION":15.33015316,"ECCENTRICITY":0.0001759,"INCLINATION":43.0021,"RA_OF_ASC_NODE":281.4608,"ARG_OF_PERICENTER":297.3279,"MEAN_ANOMALY":62.7395,"EPHEMERIS_TYPE":0,"CLASSIFICATION_TYPE":"U","NORAD_CAT_ID":59191,"ELEMENT_SET_NO":999,"REV_AT_EPOCH":7874,"BSTAR":2.2084e-5,"MEAN_MOTION_DOT":4.41e-6,"MEAN_MOTION_DDOT":0},{"OBJECT_NAME":"STARLINK-31536","OBJECT_ID":"2024-045Q","EPOCH":"2025-07-28T06:00:02.000160","MEAN_MOTION":15.27571604,"ECCENTRICITY":0.0001327,"INCLINATION":42.9997,"RA_OF_ASC_NODE":280.0484,"ARG_OF_PERICENTER":255.5399,"MEAN_ANOMALY":199.2509,"EPHEMERIS_TYPE":0,"CLASSIFICATION_TYPE":"U","NORAD_CAT_ID":59192,"ELEMENT_SET_NO":999,"REV_AT_EPOCH":7883,"BSTAR":0.00023152,"MEAN_MOTION_DOT":6.113e-5,"MEAN_MOTION_DDOT":0},{"OBJECT_NAME":"STARLINK-31548","OBJECT_ID":"2024-045R","EPOCH":"2025-07-27T06:43:37.045632","MEAN_MOTION":15.27581774,"ECCENTRICITY":0.0001584,"INCLINATION":42.9994,"RA_OF_ASC_NODE":285.9072,"ARG_OF_PERICENTER":270.557,"MEAN_ANOMALY":89.51,"EPHEMERIS_TYPE":0,"CLASSIFICATION_TYPE":"U","NORAD_CAT_ID":59193,"ELEMENT_SET_NO":999,"REV_AT_EPOCH":7868,"BSTAR":0.00013288,"MEAN_MOTION_DOT":3.396e-5,"MEAN_MOTION_DDOT":0},{"OBJECT_NAME":"STARLINK-31542","OBJECT_ID":"2024-045S","EPOCH":"2025-07-28T04:52:41.073888","MEAN_MOTION":15.27593355,"ECCENTRICITY":0.0001584,"INCLINATION":42.997,"RA_OF_ASC_NODE":279.9344,"ARG_OF_PERICENTER":264.0991,"MEAN_ANOMALY":95.968,"EPHEMERIS_TYPE":0,"CLASSIFICATION_TYPE":"U","NORAD_CAT_ID":59194,"ELEMENT_SET_NO":999,"REV_AT_EPOCH":7883,"BSTAR":0.00013857,"MEAN_MOTION_DOT":3.554e-5,"MEAN_MOTION_DDOT":0}]
