STARLINK-31283          
1 59174U 24044Y   25208.91668981  .00003238  00000+0  12717-3 0  9991
2 59174  42.9989 249.5050 0001478 264.1062  33.8828 15.27571648  5918
STARLINK-31439          
1 59178U 24045A   25208.59099895  .00005099  00000+0  19461-3 0  9992
2 59178  43.0005 280.4814 0001389 268.8405  91.2288 15.27590547 15107
STARLINK-31410          
1 59179U 24045B   25208.58280572  .00006576  00000+0  24817-3 0  9998
2 59179  42.9994 283.8794 0001274 269.2625  90.8080 15.27592789 78732
STARLINK-31395          
1 59180U 24045C   25209.19956225 -.00000715  00000+0 -16462-4 0  9992
2 59180  43.0024 280.7703 0001139 244.8542 115.2192 15.27574384 78820
STARLINK-31486          
1 59181U 24045D   25209.18333986  .00000112  00000+0  13620-4 0  9997
2 59181  43.0005 277.1890 0001729 277.9840  82.0815 15.27574716 78866
STARLINK-31411          
1 59182U 24045E   25208.55711199 -.00000653  00000+0 -14202-4 0  9993
2 59182  42.9988 283.6862 0000916 270.4136  89.6611 15.27588712 78733
STARLINK-31382          
1 59184U 24045G   25208.61735118  .00004472  00000+0  17189-3 0  9996
2 59184  42.9984 283.2755 0001314 264.4963  95.5739 15.27590584 78740
STARLINK-31394          
1 59185U 24045H   25209.15732714 -.00000407  00000+0 -52538-5 0  9991
2 59185  43.0009 270.0825 0002659 316.1532  43.9109 15.27579988 78948
STARLINK-31403          
1 59186U 24045J   25208.87149460  .00001192  00000+0  52836-4 0  9990
2 59186  43.0028 260.7635 0001121 272.9985  87.0739 15.27580632 78967
STARLINK-31514          
1 59187U 24045K   25208.58538932 -.00003264  00000+0 -10916-3 0  9991
2 59187  43.0016 283.8982 0000800 272.4000  87.6760 15.27580778 78738
STARLINK-31478          
1 59188U 24045L   25209.22896508 -.00016533  00000+0 -59289-3 0  9999
2 59188  42.9983 280.1221 0001122 285.1801  74.8927 15.27563984 78838
STARLINK-31498          
1 59189U 24045M   25208.60078955  .00002081  00000+0  85116-4 0  9999
2 59189  43.0028 284.0102 0001262 276.3217  83.7491 15.27585685 78736
STARLINK-31563          
1 59190U 24045N   25209.21740877 -.00001211  00000+0 -34496-4 0  9999
2 59190  43.0011 280.0397 0000454 247.5850 112.4953 15.27572055 78838
STARLINK-31551          
1 59191U 24045P   25208.37404943  .00000441  00000+0  22084-4 0  9999
2 59191  43.0021 281.4608 0001759 297.3279  62.7395 15.33015316 78743
STARLINK-31536          
1 59192U 24045Q   25209.25002315  .00006113  00000+0  23152-3 0  9993
2 59192  42.9997 280.0484 0001327 255.5399 199.2509 15.27571604 78834
STARLINK-31548          
1 59193U 24045R   25208.28028988  .00003396  00000+0  13288-3 0  9999
2 59193  42.9994 285.9072 0001584 270.5570  89.5100 15.27581774 78682
STARLINK-31542          
1 59194U 24045S   25209.20325317  .00003554  00000+0  13857-3 0  9997
2 59194  42.9970 279.9344 0001584 264.0991  95.9680 15.27593355 78836
